start=new Date('2022-03-17T00:00:00.000Z').valueOf();
sats=[{"SEMIMAJOR_AXIS":"6925.440","MEAN_MOTION_DOT":"-0.00001839","ECCENTRICITY":"0.00017530","ARG_OF_PERICENTER":"50.9638","TIME_SYSTEM":"UTC","OBJECT_ID":"2021-005AC","TLE_LINE2":"2 47375  53.0548 109.3242 0001753  50.9638 309.1507 15.06370073 63872","COUNTRY_CODE":"US","OBJECT_TYPE":"PAYLOAD","OBJECT_NAME":"STARLINK-2094","EPOCH":"2022-03-16T14:14:09.598560","PERIAPSIS":"546.091","MEAN_ELEMENT_THEORY":"SGP4","MEAN_MOTION_DDOT":"0.0000000000000","REF_FRAME":"TEME","CLASSIFICATION_TYPE":"U","TLE_LINE1":"1 47375U 21005AC  22075.59316665 -.00001839  00000-0 -10466-3 0  9994","MEAN_MOTION":"15.06370073","RCS_SIZE":"LARGE","REV_AT_EPOCH":"6387","DECAY_DATE":null,"LAUNCH_DATE":"2021-01-20","PERIOD":"95.594","MEAN_ANOMALY":"309.1507","NORAD_CAT_ID":"47375","INCLINATION":"53.0548","RA_OF_ASC_NODE":"109.3242","SITE":"AFETR","FILE":"3362094","BSTAR":"-0.00010466000000","GP_ID":"198921523","APOAPSIS":"548.519","ELEMENT_SET_NO":"999","EPHEMERIS_TYPE":"0","CENTER_NAME":"EARTH"},{"TLE_LINE2":"2 47376  53.0536 109.8969 0001698  59.4578 300.6579 15.06362690 63855","COUNTRY_CODE":"US","OBJECT_NAME":"STARLINK-2096","OBJECT_TYPE":"PAYLOAD","EPOCH":"2022-03-16T11:08:23.246016","PERIAPSIS":"546.152","MEAN_ELEMENT_THEORY":"SGP4","MEAN_MOTION_DDOT":"0.0000000000000","REF_FRAME":"TEME","CLASSIFICATION_TYPE":"U","TLE_LINE1":"1 47376U 21005AD  22075.46415794 -.00001752  00000-0 -98868-4 0  9991","MEAN_MOTION":"15.06362690","SEMIMAJOR_AXIS":"6925.463","MEAN_MOTION_DOT":"-0.00001752","ARG_OF_PERICENTER":"59.4578","TIME_SYSTEM":"UTC","ECCENTRICITY":"0.00016980","OBJECT_ID":"2021-005AD","FILE":"3361689","BSTAR":"-0.00009886800000","GP_ID":"198887879","APOAPSIS":"548.504","EPHEMERIS_TYPE":"0","ELEMENT_SET_NO":"999","CENTER_NAME":"EARTH","RCS_SIZE":"LARGE","REV_AT_EPOCH":"6385","DECAY_DATE":null,"LAUNCH_DATE":"2021-01-20","PERIOD":"95.595","MEAN_ANOMALY":"300.6579","INCLINATION":"53.0536","NORAD_CAT_ID":"47376","RA_OF_ASC_NODE":"109.8969","SITE":"AFETR"},{"OBJECT_ID":"2021-005AE","SEMIMAJOR_AXIS":"6925.465","MEAN_MOTION_DOT":"-0.00001903","ARG_OF_PERICENTER":"58.8030","ECCENTRICITY":"0.00014560","TIME_SYSTEM":"UTC","EPOCH":"2022-03-16T12:22:41.854080","PERIAPSIS":"546.322","MEAN_ELEMENT_THEORY":"SGP4","MEAN_MOTION_DDOT":"0.0000000000000","REF_FRAME":"TEME","CLASSIFICATION_TYPE":"U","TLE_LINE1":"1 47377U 21005AE  22075.51576220 -.00001903  00000-0 -10901-3 0  9999","MEAN_MOTION":"15.06361951","TLE_LINE2":"2 47377  53.0554 109.6658 0001456  58.8030 301.3102 15.06361951 63867","COUNTRY_CODE":"US","OBJECT_NAME":"STARLINK-2097","OBJECT_TYPE":"PAYLOAD","DECAY_DATE":null,"LAUNCH_DATE":"2021-01-20","PERIOD":"95.595","MEAN_ANOMALY":"301.3102","INCLINATION":"53.0554","NORAD_CAT_ID":"47377","RA_OF_ASC_NODE":"109.6658","SITE":"AFETR","RCS_SIZE":"LARGE","REV_AT_EPOCH":"6386","CENTER_NAME":"EARTH","BSTAR":"-0.00010901000000","FILE":"3361903","GP_ID":"198895672","APOAPSIS":"548.339","EPHEMERIS_TYPE":"0","ELEMENT_SET_NO":"999"},{"APOAPSIS":"548.348","GP_ID":"198920785","BSTAR":"-0.00007528700000","FILE":"3362094","EPHEMERIS_TYPE":"0","ELEMENT_SET_NO":"999","CENTER_NAME":"EARTH","RCS_SIZE":"LARGE","REV_AT_EPOCH":"6445","MEAN_ANOMALY":"302.4417","LAUNCH_DATE":"2021-01-20","PERIOD":"95.593","DECAY_DATE":null,"SITE":"AFETR","RA_OF_ASC_NODE":"68.8025","INCLINATION":"53.0539","NORAD_CAT_ID":"47378","OBJECT_NAME":"STARLINK-2098","OBJECT_TYPE":"PAYLOAD","COUNTRY_CODE":"US","TLE_LINE2":"2 47378  53.0539  68.8025 0001592  57.6726 302.4417 15.06389578 64457","MEAN_ELEMENT_THEORY":"SGP4","MEAN_MOTION_DDOT":"0.0000000000000","PERIAPSIS":"546.143","EPOCH":"2022-03-16T16:58:39.583776","MEAN_MOTION":"15.06389578","CLASSIFICATION_TYPE":"U","TLE_LINE1":"1 47378U 21005AF  22075.70740259 -.00001402  00000-0 -75287-4 0  9999","REF_FRAME":"TEME","SEMIMAJOR_AXIS":"6925.381","ARG_OF_PERICENTER":"57.6726","TIME_SYSTEM":"UTC","ECCENTRICITY":"0.00015920","MEAN_MOTION_DOT":"-0.00001402","OBJECT_ID":"2021-005AF"},{"CENTER_NAME":"EARTH","ELEMENT_SET_NO":"999","EPHEMERIS_TYPE":"0","APOAPSIS":"548.533","GP_ID":"198921024","BSTAR":"-0.00004223400000","FILE":"3362094","SITE":"AFETR","RA_OF_ASC_NODE":"68.7611","NORAD_CAT_ID":"47379","INCLINATION":"53.0562","MEAN_ANOMALY":"299.5669","PERIOD":"95.594","LAUNCH_DATE":"2021-01-20","DECAY_DATE":null,"REV_AT_EPOCH":"6445","RCS_SIZE":"LARGE","MEAN_MOTION":"15.06373188","TLE_LINE1":"1 47379U 21005AG  22075.71480046 -.00000910  00000-0 -42234-4 0  9995","CLASSIFICATION_TYPE":"U","REF_FRAME":"TEME","MEAN_MOTION_DDOT":"0.0000000000000","MEAN_ELEMENT_THEORY":"SGP4","PERIAPSIS":"546.059","EPOCH":"2022-03-16T17:09:18.759744","OBJECT_NAME":"STARLINK-2099","OBJECT_TYPE":"PAYLOAD","COUNTRY_CODE":"US","TLE_LINE2":"2 47379  53.0562  68.7611 0001786  60.5498 299.5669 15.06373188 64453","OBJECT_ID":"2021-005AG","ECCENTRICITY":"0.00017860","ARG_OF_PERICENTER":"60.5498","TIME_SYSTEM":"UTC","MEAN_MOTION_DOT":"-0.00000910","SEMIMAJOR_AXIS":"6925.431"},{"OBJECT_ID":"2021-005AH","SEMIMAJOR_AXIS":"6925.432","MEAN_MOTION_DOT":"0.00001208","ARG_OF_PERICENTER":"56.4433","ECCENTRICITY":"0.00017310","TIME_SYSTEM":"UTC","EPOCH":"2022-03-16T17:50:26.831904","PERIAPSIS":"546.098","MEAN_ELEMENT_THEORY":"SGP4","MEAN_MOTION_DDOT":"0.0000000000000","REF_FRAME":"TEME","CLASSIFICATION_TYPE":"U","TLE_LINE1":"1 47380U 21005AH  22075.74336611  .00001208  00000-0  10008-3 0  9990","MEAN_MOTION":"15.06372855","TLE_LINE2":"2 47380  53.0531  78.6394 0001731  56.4433 303.6721 15.06372855 64324","COUNTRY_CODE":"US","OBJECT_TYPE":"PAYLOAD","OBJECT_NAME":"STARLINK-2100","DECAY_DATE":null,"LAUNCH_DATE":"2021-01-20","PERIOD":"95.594","MEAN_ANOMALY":"303.6721","NORAD_CAT_ID":"47380","INCLINATION":"53.0531","RA_OF_ASC_NODE":"78.6394","SITE":"AFETR","RCS_SIZE":"LARGE","REV_AT_EPOCH":"6432","CENTER_NAME":"EARTH","BSTAR":"0.00010008000000","FILE":"3362094","GP_ID":"198921773","APOAPSIS":"548.496","EPHEMERIS_TYPE":"0","ELEMENT_SET_NO":"999"},{"OBJECT_ID":"2021-005AJ","SEMIMAJOR_AXIS":"6925.402","ARG_OF_PERICENTER":"62.2723","ECCENTRICITY":"0.00015730","TIME_SYSTEM":"UTC","MEAN_MOTION_DOT":"-0.00000253","MEAN_ELEMENT_THEORY":"SGP4","MEAN_MOTION_DDOT":"0.0000000000000","PERIAPSIS":"546.178","EPOCH":"2022-03-16T18:01:41.211552","MEAN_MOTION":"15.06382577","TLE_LINE1":"1 47381U 21005AJ  22075.75117143 -.00000253  00000-0  19011-5 0  9994","CLASSIFICATION_TYPE":"U","REF_FRAME":"TEME","OBJECT_NAME":"STARLINK-2101","OBJECT_TYPE":"PAYLOAD","COUNTRY_CODE":"US","TLE_LINE2":"2 47381  53.0535  83.6065 0001573  62.2723 297.8426 15.06382577 64251","MEAN_ANOMALY":"297.8426","LAUNCH_DATE":"2021-01-20","PERIOD":"95.593","DECAY_DATE":null,"SITE":"AFETR","RA_OF_ASC_NODE":"83.6065","INCLINATION":"53.0535","NORAD_CAT_ID":"47381","RCS_SIZE":"LARGE","REV_AT_EPOCH":"6425","CENTER_NAME":"EARTH","APOAPSIS":"548.356","GP_ID":"198922434","BSTAR":"0.00000190110000","FILE":"3362094","ELEMENT_SET_NO":"999","EPHEMERIS_TYPE":"0"},{"OBJECT_ID":"2021-005AK","ECCENTRICITY":"0.00018630","ARG_OF_PERICENTER":"58.1787","TIME_SYSTEM":"UTC","MEAN_MOTION_DOT":"-0.00000875","SEMIMAJOR_AXIS":"6925.415","CLASSIFICATION_TYPE":"U","TLE_LINE1":"1 47382U 21005AK  22075.73598891 -.00000875  00000-0 -39866-4 0  9996","REF_FRAME":"TEME","MEAN_MOTION":"15.06378456","PERIAPSIS":"545.989","EPOCH":"2022-03-16T17:39:49.441824","MEAN_MOTION_DDOT":"0.0000000000000","MEAN_ELEMENT_THEORY":"SGP4","COUNTRY_CODE":"US","TLE_LINE2":"2 47382  53.0556  78.6668 0001863  58.1787 301.9383 15.06378456 64311","OBJECT_TYPE":"PAYLOAD","OBJECT_NAME":"STARLINK-2102","NORAD_CAT_ID":"47382","INCLINATION":"53.0556","SITE":"AFETR","RA_OF_ASC_NODE":"78.6668","DECAY_DATE":null,"MEAN_ANOMALY":"301.9383","PERIOD":"95.594","LAUNCH_DATE":"2021-01-20","REV_AT_EPOCH":"6431","RCS_SIZE":"LARGE","CENTER_NAME":"EARTH","EPHEMERIS_TYPE":"0","ELEMENT_SET_NO":"999","GP_ID":"198921285","FILE":"3362094","BSTAR":"-0.00003986600000","APOAPSIS":"548.570"},{"CENTER_NAME":"EARTH","FILE":"3361689","BSTAR":"-0.00017869000000","GP_ID":"198889630","APOAPSIS":"548.547","EPHEMERIS_TYPE":"0","ELEMENT_SET_NO":"999","DECAY_DATE":null,"LAUNCH_DATE":"2021-01-20","PERIOD":"95.594","MEAN_ANOMALY":"306.6182","NORAD_CAT_ID":"47383","INCLINATION":"53.0544","RA_OF_ASC_NODE":"70.3776","SITE":"AFETR","RCS_SIZE":"LARGE","REV_AT_EPOCH":"6440","EPOCH":"2022-03-16T08:33:05.089824","PERIAPSIS":"546.072","MEAN_ELEMENT_THEORY":"SGP4","MEAN_MOTION_DDOT":"0.0000000000000","REF_FRAME":"TEME","TLE_LINE1":"1 47383U 21005AL  22075.35630891 -.00002940  00000-0 -17869-3 0  9995","CLASSIFICATION_TYPE":"U","MEAN_MOTION":"15.06368656","TLE_LINE2":"2 47383  53.0544  70.3776 0001787  53.4971 306.6182 15.06368656 64406","COUNTRY_CODE":"US","OBJECT_TYPE":"PAYLOAD","OBJECT_NAME":"STARLINK-2103","OBJECT_ID":"2021-005AL","SEMIMAJOR_AXIS":"6925.445","MEAN_MOTION_DOT":"-0.00002940","ECCENTRICITY":"0.00017870","ARG_OF_PERICENTER":"53.4971","TIME_SYSTEM":"UTC"},{"CENTER_NAME":"EARTH","APOAPSIS":"548.440","BSTAR":"0.00101720000000","FILE":"3361689","GP_ID":"198887880","EPHEMERIS_TYPE":"0","ELEMENT_SET_NO":"999","PERIOD":"95.594","LAUNCH_DATE":"2021-01-20","MEAN_ANOMALY":"317.5915","DECAY_DATE":null,"RA_OF_ASC_NODE":"80.9365","SITE":"AFETR","INCLINATION":"53.0540","NORAD_CAT_ID":"47384","RCS_SIZE":"LARGE","REV_AT_EPOCH":"6424","MEAN_ELEMENT_THEORY":"SGP4","MEAN_MOTION_DDOT":"0.0000000000000","EPOCH":"2022-03-16T05:36:36.134784","PERIAPSIS":"546.194","MEAN_MOTION":"15.06366258","REF_FRAME":"TEME","CLASSIFICATION_TYPE":"U","TLE_LINE1":"1 47384U 21005AM  22075.23375156  .00014888  00000-0  10172-2 0  9994","OBJECT_TYPE":"PAYLOAD","OBJECT_NAME":"STARLINK-2104","TLE_LINE2":"2 47384  53.0540  80.9365 0001621  42.5199 317.5915 15.06366258 64245","COUNTRY_CODE":"US","OBJECT_ID":"2021-005AM","SEMIMAJOR_AXIS":"6925.452","MEAN_MOTION_DOT":"0.00014888","TIME_SYSTEM":"UTC","ARG_OF_PERICENTER":"42.5199","ECCENTRICITY":"0.00016210"}];
